[{"OBJECT_NAME":"SL-14 R/B","OBJECT_ID":"1986-006B","EPOCH":"2026-03-27T03:40:01.618464","MEAN_MOTION":14.86841322,"ECCENTRICITY":0.00756773,"INCLINATION":82.5249,"RA_OF_ASC_NODE":243.2973,"ARG_OF_PERICENTER":213.9013,"MEAN_ANOMALY":145.7356,"EPHEMERIS_TYPE":0,"CLASSIFICATION_TYPE":"U","NORAD_CAT_ID":16496,"ELEMENT_SET_NO":999,"REV_AT_EPOCH":15180,"BSTAR":9.311668e-5,"MEAN_MOTION_DOT":9.01e-6,"MEAN_MOTION_DDOT":0},{"OBJECT_NAME":"COSMOS 1743","OBJECT_ID":"1986-034A","EPOCH":"2026-03-27T06:58:25.922784","MEAN_MOTION":15.59967674,"ECCENTRICITY":0.00039593,"INCLINATION":82.5301,"RA_OF_ASC_NODE":55.3373,"ARG_OF_PERICENTER":175.9983,"MEAN_ANOMALY":184.1306,"EPHEMERIS_TYPE":0,"CLASSIFICATION_TYPE":"U","NORAD_CAT_ID":16719,"ELEMENT_SET_NO":999,"REV_AT_EPOCH":18299,"BSTAR":0.00052070644,"MEAN_MOTION_DOT":0.00042183,"MEAN_MOTION_DDOT":0},{"OBJECT_NAME":"SL-14 R/B","OBJECT_ID":"1986-046B","EPOCH":"2026-03-26T23:35:12.390720","MEAN_MOTION":14.85606659,"ECCENTRICITY":0.0023393,"INCLINATION":82.4799,"RA_OF_ASC_NODE":63.8374,"ARG_OF_PERICENTER":167.0572,"MEAN_ANOMALY":193.1249,"EPHEMERIS_TYPE":0,"CLASSIFICATION_TYPE":"U","NORAD_CAT_ID":16792,"ELEMENT_SET_NO":999,"REV_AT_EPOCH":12897,"BSTAR":5.6118e-5,"MEAN_MOTION_DOT":5.12e-6,"MEAN_MOTION_DDOT":0},{"OBJECT_NAME":"SL-14 R/B","OBJECT_ID":"1986-055B","EPOCH":"2026-03-27T07:19:12.995328","MEAN_MOTION":14.85657679,"ECCENTRICITY":0.00173078,"INCLINATION":82.5172,"RA_OF_ASC_NODE":110.1131,"ARG_OF_PERICENTER":274.2887,"MEAN_ANOMALY":96.4057,"EPHEMERIS_TYPE":0,"CLASSIFICATION_TYPE":"U","NORAD_CAT_ID":16882,"ELEMENT_SET_NO":999,"REV_AT_EPOCH":12198,"BSTAR":4.6031557e-5,"MEAN_MOTION_DOT":4.24e-6,"MEAN_MOTION_DDOT":0},{"OBJECT_NAME":"AJISAI (EGS)","OBJECT_ID":"1986-061A","EPOCH":"2026-03-27T07:46:37.582176","MEAN_MOTION":12.44515633,"ECCENTRICITY":0.00113302,"INCLINATION":50.0109,"RA_OF_ASC_NODE":39.1204,"ARG_OF_PERICENTER":332.5034,"MEAN_ANOMALY":192.4689,"EPHEMERIS_TYPE":0,"CLASSIFICATION_TYPE":"U","NORAD_CAT_ID":16908,"ELEMENT_SET_NO":999,"REV_AT_EPOCH":47019,"BSTAR":3.6347042e-5,"MEAN_MOTION_DOT":-9.2e-7,"MEAN_MOTION_DDOT":0},{"OBJECT_NAME":"SL-14 R/B","OBJECT_ID":"1987-024B","EPOCH":"2026-03-27T05:05:05.256096","MEAN_MOTION":14.86148277,"ECCENTRICITY":0.00176635,"INCLINATION":82.5251,"RA_OF_ASC_NODE":76.2895,"ARG_OF_PERICENTER":197.9806,"MEAN_ANOMALY":162.0788,"EPHEMERIS_TYPE":0,"CLASSIFICATION_TYPE":"U","NORAD_CAT_ID":17567,"ELEMENT_SET_NO":999,"REV_AT_EPOCH":9073,"BSTAR":5.3193172e-5,"MEAN_MOTION_DOT":4.92e-6,"MEAN_MOTION_DDOT":0},{"OBJECT_NAME":"COSMOS 1833","OBJECT_ID":"1987-027A","EPOCH":"2026-03-26T23:47:37.409280","MEAN_MOTION":14.1304835,"ECCENTRICITY":0.0023366,"INCLINATION":70.9175,"RA_OF_ASC_NODE":289.6533,"ARG_OF_PERICENTER":189.1717,"MEAN_ANOMALY":170.8981,"EPHEMERIS_TYPE":0,"CLASSIFICATION_TYPE":"U","NORAD_CAT_ID":17589,"ELEMENT_SET_NO":999,"REV_AT_EPOCH":1276,"BSTAR":-0.00012190527,"MEAN_MOTION_DOT":-2.76e-6,"MEAN_MOTION_DDOT":0},{"OBJECT_NAME":"SL-16 R/B","OBJECT_ID":"1987-027B","EPOCH":"2026-03-27T06:25:38.800416","MEAN_MOTION":14.17165588,"ECCENTRICITY":0.0002849,"INCLINATION":71.0013,"RA_OF_ASC_NODE":239.4497,"ARG_OF_PERICENTER":99.9045,"MEAN_ANOMALY":260.24,"EPHEMERIS_TYPE":0,"CLASSIFICATION_TYPE":"U","NORAD_CAT_ID":17590,"ELEMENT_SET_NO":999,"REV_AT_EPOCH":1783,"BSTAR":-4.6264083e-5,"MEAN_MOTION_DOT":-1.41e-6,"MEAN_MOTION_DDOT":0},{"OBJECT_NAME":"SL-14 R/B","OBJECT_ID":"1987-038B","EPOCH":"2026-03-27T06:47:48.589728","MEAN_MOTION":14.85384512,"ECCENTRICITY":0.00207251,"INCLINATION":82.4977,"RA_OF_ASC_NODE":280.2293,"ARG_OF_PERICENTER":105.3902,"MEAN_ANOMALY":254.9606,"EPHEMERIS_TYPE":0,"CLASSIFICATION_TYPE":"U","NORAD_CAT_ID":17912,"ELEMENT_SET_NO":999,"REV_AT_EPOCH":8184,"BSTAR":5.2054463e-5,"MEAN_MOTION_DOT":4.74e-6,"MEAN_MOTION_DDOT":0},{"OBJECT_NAME":"COSMOS 1844","OBJECT_ID":"1987-041A","EPOCH":"2026-03-27T03:35:25.967904","MEAN_MOTION":14.14555199,"ECCENTRICITY":0.00309355,"INCLINATION":70.9013,"RA_OF_ASC_NODE":357.3495,"ARG_OF_PERICENTER":352.4072,"MEAN_ANOMALY":7.6577,"EPHEMERIS_TYPE":0,"CLASSIFICATION_TYPE":"U","NORAD_CAT_ID":17973,"ELEMENT_SET_NO":999,"REV_AT_EPOCH":605,"BSTAR":0.00020045076,"MEAN_MOTION_DOT":3.38e-6,"MEAN_MOTION_DDOT":0},{"OBJECT_NAME":"SL-14 R/B","OBJECT_ID":"1987-055B","EPOCH":"2026-03-27T04:33:02.068992","MEAN_MOTION":14.85646545,"ECCENTRICITY":0.00196186,"INCLINATION":82.501,"RA_OF_ASC_NODE":332.5411,"ARG_OF_PERICENTER":319.236,"MEAN_ANOMALY":40.7387,"EPHEMERIS_TYPE":0,"CLASSIFICATION_TYPE":"U","NORAD_CAT_ID":18153,"ELEMENT_SET_NO":999,"REV_AT_EPOCH":7253,"BSTAR":4.4352224e-5,"MEAN_MOTION_DOT":4.09e-6,"MEAN_MOTION_DDOT":0},{"OBJECT_NAME":"COSMOS 1867","OBJECT_ID":"1987-060A","EPOCH":"2026-03-27T04:27:58.038624","MEAN_MOTION":14.31505642,"ECCENTRICITY":0.00147799,"INCLINATION":65.0091,"RA_OF_ASC_NODE":257.7041,"ARG_OF_PERICENTER":279.6896,"MEAN_ANOMALY":80.2518,"EPHEMERIS_TYPE":0,"CLASSIFICATION_TYPE":"U","NORAD_CAT_ID":18187,"ELEMENT_SET_NO":999,"REV_AT_EPOCH":2244,"BSTAR":3.64681e-5,"MEAN_MOTION_DOT":-3.0e-8,"MEAN_MOTION_DDOT":0},{"OBJECT_NAME":"SL-14 R/B","OBJECT_ID":"1988-001B","EPOCH":"2026-03-27T06:05:05.480160","MEAN_MOTION":14.8554672,"ECCENTRICITY":0.00181973,"INCLINATION":82.5162,"RA_OF_ASC_NODE":178.8461,"ARG_OF_PERICENTER":175.5762,"MEAN_ANOMALY":184.5619,"EPHEMERIS_TYPE":0,"CLASSIFICATION_TYPE":"U","NORAD_CAT_ID":18749,"ELEMENT_SET_NO":999,"REV_AT_EPOCH":4463,"BSTAR":5.3033251e-5,"MEAN_MOTION_DOT":4.84e-6,"MEAN_MOTION_DDOT":0},{"OBJECT_NAME":"COSMOS 1933","OBJECT_ID":"1988-020A","EPOCH":"2026-03-26T20:41:33.537408","MEAN_MOTION":15.18142712,"ECCENTRICITY":0.00051048,"INCLINATION":82.5119,"RA_OF_ASC_NODE":233.9171,"ARG_OF_PERICENTER":130.63,"MEAN_ANOMALY":229.5379,"EPHEMERIS_TYPE":0,"CLASSIFICATION_TYPE":"U","NORAD_CAT_ID":18958,"ELEMENT_SET_NO":999,"REV_AT_EPOCH":5283,"BSTAR":0.0002203035,"MEAN_MOTION_DOT":4.527e-5,"MEAN_MOTION_DDOT":0},{"OBJECT_NAME":"SL-3 R/B","OBJECT_ID":"1988-032B","EPOCH":"2026-03-27T05:50:54.034080","MEAN_MOTION":15.2009615,"ECCENTRICITY":0.00261669,"INCLINATION":97.5213,"RA_OF_ASC_NODE":69.4376,"ARG_OF_PERICENTER":168.7118,"MEAN_ANOMALY":191.4709,"EPHEMERIS_TYPE":0,"CLASSIFICATION_TYPE":"U","NORAD_CAT_ID":19046,"ELEMENT_SET_NO":999,"REV_AT_EPOCH":5477,"BSTAR":0.00022417331,"MEAN_MOTION_DOT":4.814e-5,"MEAN_MOTION_DDOT":0},{"OBJECT_NAME":"SL-16 R/B","OBJECT_ID":"1988-039B","EPOCH":"2026-03-27T05:50:50.820864","MEAN_MOTION":14.1961847,"ECCENTRICITY":0.00235943,"INCLINATION":71.0164,"RA_OF_ASC_NODE":31.428,"ARG_OF_PERICENTER":309.1689,"MEAN_ANOMALY":50.7339,"EPHEMERIS_TYPE":0,"CLASSIFICATION_TYPE":"U","NORAD_CAT_ID":19120,"ELEMENT_SET_NO":999,"REV_AT_EPOCH":96087,"BSTAR":9.5393293e-5,"MEAN_MOTION_DOT":1.54e-6,"MEAN_MOTION_DDOT":0},{"OBJECT_NAME":"COSMOS 1953","OBJECT_ID":"1988-050A","EPOCH":"2026-03-27T05:36:56.512224","MEAN_MOTION":15.2879239,"ECCENTRICITY":0.00124564,"INCLINATION":82.5081,"RA_OF_ASC_NODE":140.5995,"ARG_OF_PERICENTER":67.9138,"MEAN_ANOMALY":292.3423,"EPHEMERIS_TYPE":0,"CLASSIFICATION_TYPE":"U","NORAD_CAT_ID":19210,"ELEMENT_SET_NO":999,"REV_AT_EPOCH":4046,"BSTAR":0.00023531646,"MEAN_MOTION_DOT":6.631e-5,"MEAN_MOTION_DDOT":0}]
